IRIDIUM 150             
1 43257U 18030J   25156.32837366 -.00000021  00000+0 -14577-4 0  9992
2 43257  86.3959  88.0232 0002380  79.9809 280.1655 14.34217303376147
IRIDIUM 143             
1 43258U 18030K   25156.51865187  .00000171  00000+0  54156-4 0  9997
2 43258  86.3963  88.0214 0002623  76.6148 283.5340 14.34217248376105
IRIDIUM 161             
1 43478U 18047C   25156.63328852  .00000391  00000+0  11038-3 0  9990
2 43478  86.4497 245.7655 0002253 100.2833 259.8622 14.43278064370822
IRIDIUM 152             
1 43479U 18047D   25156.49136833  .00000189  00000+0  60594-4 0  9998
2 43479  86.3973 245.6852 0002295  98.5524 261.5932 14.34217127368498
IRIDIUM 147             
1 43480U 18047E   25156.49770944 -.00000003  00000+0 -80743-5 0  9993
2 43480  86.3975 245.6812 0002013  95.5043 264.6382 14.34216414368490
IRIDIUM 110             
1 43481U 18047F   25156.50405423  .00000266  00000+0  88035-4 0  9993
2 43481  86.3976 245.7604 0002148 107.2618 252.8813 14.34217155368480
IRIDIUM 162             
1 43482U 18047G   25156.62699195  .00000391  00000+0  11033-3 0  9990
2 43482  86.4497 245.6636 0002409 103.0641 257.0829 14.43278039370816
IRIDIUM 160             
1 43569U 18061A   25156.44989020  .00000038  00000+0  66643-5 0  9998
2 43569  86.3997 214.1802 0002233  99.0117 261.1331 14.34217653359376
